{
  "type": "FeatureCollection",
  "features": [
    {
      "type": "Feature",
      "properties": {
        "norad_id": 66908,
        "name": "1998-067XU",
        "group": "stations",
        "lat": -31.9608865541956,
        "lon": 131.40878989092985,
        "alt_km": 419.5248701533201,
        "timestamp": "2025-12-08T23:34:02.757349+00:00",
        "meta_object_name": "1998-067XU",
        "meta_object_id": "1998-067XU",
        "meta_epoch": "2025-12-08T14:28:14.784096",
        "meta_mean_motion": 15.5077485,
        "meta_eccentricity": 0.00051439,
        "meta_inclination": 51.6294,
        "meta_ra_of_asc_node": 162.9167,
        "meta_arg_of_pericenter": 202.1704,
        "meta_mean_anomaly": 157.9063,
        "meta_ephemeris_type": 0,
        "meta_classification_type": "U",
        "meta_norad_cat_id": 66908,
        "meta_element_set_no": 999,
        "meta_rev_at_epoch": 97,
        "meta_bstar": 0.0010998986,
        "meta_mean_motion_dot": 0.00064615,
        "meta_mean_motion_ddot": 0,
        "tle_line1": "1 66908U 98067XU  25342.60294889  .00064615  00000+0  10999-2 0  9992",
        "tle_line2": "2 66908  51.6294 162.9167 0005143 202.1704 157.9063 15.50774850   978"
      },
      "geometry": {
        "type": "Point",
        "coordinates": [
          131.40878989092985,
          -31.9608865541956
        ]
      }
    },
    {
      "type": "Feature",
      "properties": {
        "norad_id": 66909,
        "name": "SILVERSAT",
        "group": "stations",
        "lat": -31.462401732745494,
        "lon": 132.03326364981936,
        "alt_km": 419.1387247590692,
        "timestamp": "2025-12-08T23:34:02.757361+00:00",
        "meta_object_name": "SILVERSAT",
        "meta_object_id": "1998-067XV",
        "meta_epoch": "2025-12-08T12:55:17.890464",
        "meta_mean_motion": 15.50849748,
        "meta_eccentricity": 0.00049826,
        "meta_inclination": 51.6295,
        "meta_ra_of_asc_node": 163.2358,
        "meta_arg_of_pericenter": 203.4161,
        "meta_mean_anomaly": 156.6602,
        "meta_ephemeris_type": 0,
        "meta_classification_type": "U",
        "meta_norad_cat_id": 66909,
        "meta_element_set_no": 999,
        "meta_rev_at_epoch": 96,
        "meta_bstar": 0.001262733,
        "meta_mean_motion_dot": 0.00074541,
        "meta_mean_motion_ddot": 0,
        "tle_line1": "1 66909U 98067XV  25342.53840151  .00074541  00000+0  12627-2 0  9993",
        "tle_line2": "2 66909  51.6295 163.2358 0004982 203.4161 156.6602 15.50849748   960"
      },
      "geometry": {
        "type": "Point",
        "coordinates": [
          132.03326364981936,
          -31.462401732745494
        ]
      }
    },
    {
      "type": "Feature",
      "properties": {
        "norad_id": 66910,
        "name": "1998-067XW",
        "group": "stations",
        "lat": -27.180489550377164,
        "lon": 137.01368812295877,
        "alt_km": 419.7478742675203,
        "timestamp": "2025-12-08T23:34:02.757371+00:00",
        "meta_object_name": "1998-067XW",
        "meta_object_id": "1998-067XW",
        "meta_epoch": "2025-12-08T12:53:48.654816",
        "meta_mean_motion": 15.51059789,
        "meta_eccentricity": 0.0005881,
        "meta_inclination": 51.6294,
        "meta_ra_of_asc_node": 163.229,
        "meta_arg_of_pericenter": 187.8231,
        "meta_mean_anomaly": 172.2667,
        "meta_ephemeris_type": 0,
        "meta_classification_type": "U",
        "meta_norad_cat_id": 66910,
        "meta_element_set_no": 999,
        "meta_rev_at_epoch": 96,
        "meta_bstar": 0.0011382516,
        "meta_mean_motion_dot": 0.00067606,
        "meta_mean_motion_ddot": 0,
        "tle_line1": "1 66910U 98067XW  25342.53736869  .00067606  00000+0  11383-2 0  9997",
        "tle_line2": "2 66910  51.6294 163.2290 0005881 187.8231 172.2667 15.51059789   962"
      },
      "geometry": {
        "type": "Point",
        "coordinates": [
          137.01368812295877,
          -27.180489550377164
        ]
      }
    },
    {
      "type": "Feature",
      "properties": {
        "norad_id": 66911,
        "name": "1998-067XX",
        "group": "stations",
        "lat": -26.17944843894133,
        "lon": 138.09368118357185,
        "alt_km": 419.26597661446885,
        "timestamp": "2025-12-08T23:34:02.757382+00:00",
        "meta_object_name": "1998-067XX",
        "meta_object_id": "1998-067XX",
        "meta_epoch": "2025-12-08T12:53:30.248160",
        "meta_mean_motion": 15.51182897,
        "meta_eccentricity": 0.00057745,
        "meta_inclination": 51.6292,
        "meta_ra_of_asc_node": 163.2276,
        "meta_arg_of_pericenter": 188.5906,
        "meta_mean_anomaly": 171.4985,
        "meta_ephemeris_type": 0,
        "meta_classification_type": "U",
        "meta_norad_cat_id": 66911,
        "meta_element_set_no": 999,
        "meta_rev_at_epoch": 95,
        "meta_bstar": 0.0013146958,
        "meta_mean_motion_dot": 0.00078611,
        "meta_mean_motion_ddot": 0,
        "tle_line1": "1 66911U 98067XX  25342.53715565  .00078611  00000+0  13147-2 0  9996",
        "tle_line2": "2 66911  51.6292 163.2276 0005774 188.5906 171.4985 15.51182897   953"
      },
      "geometry": {
        "type": "Point",
        "coordinates": [
          138.09368118357185,
          -26.17944843894133
        ]
      }
    },
    {
      "type": "Feature",
      "properties": {
        "norad_id": 66912,
        "name": "1998-067XY",
        "group": "stations",
        "lat": -34.06712876257489,
        "lon": 128.64581473633186,
        "alt_km": 420.07442374541824,
        "timestamp": "2025-12-08T23:34:02.757391+00:00",
        "meta_object_name": "1998-067XY",
        "meta_object_id": "1998-067XY",
        "meta_epoch": "2025-12-08T12:56:10.446720",
        "meta_mean_motion": 15.50562225,
        "meta_eccentricity": 0.00050041,
        "meta_inclination": 51.6298,
        "meta_ra_of_asc_node": 163.24,
        "meta_arg_of_pericenter": 201.6566,
        "meta_mean_anomaly": 158.4212,
        "meta_ephemeris_type": 0,
        "meta_classification_type": "U",
        "meta_norad_cat_id": 66912,
        "meta_element_set_no": 999,
        "meta_rev_at_epoch": 95,
        "meta_bstar": 0.00094066396,
        "meta_mean_motion_dot": 0.00054705,
        "meta_mean_motion_ddot": 0,
        "tle_line1": "1 66912U 98067XY  25342.53900980  .00054705  00000+0  94066-3 0  9992",
        "tle_line2": "2 66912  51.6298 163.2400 0005004 201.6566 158.4212 15.50562225   958"
      },
      "geometry": {
        "type": "Point",
        "coordinates": [
          128.64581473633186,
          -34.06712876257489
        ]
      }
    }
  ]
}